OBJECT_NAME,OBJECT_ID,EPOCH,MEAN_MOTION,ECCENTRICITY,INCLINATION,RA_OF_ASC_NODE,ARG_OF_PERICENTER,MEAN_ANOMALY,EPHEMERIS_TYPE,CLASSIFICATION_TYPE,NORAD_CAT_ID,ELEMENT_SET_NO,REV_AT_EPOCH,BSTAR,MEAN_MOTION_DOT,MEAN_MOTION_DDOT
GLOBALSTAR M069,2007-020C,2026-06-28T08:56:36.000960,12.23471630,.00020809,52.0004,220.4675,172.6853,200.4958,0,U,31573,999,88017,.29901857E-3,-.6E-6,0
GLOBALSTAR M072,2007-020D,2026-06-28T14:46:20.923680,11.91658427,.00015336,51.9938,69.8202,0.3037,13.5734,0,U,31574,999,87634,.75713461E-4,-.79E-6,0
GLOBALSTAR M066,2007-048C,2026-06-28T14:31:37.536384,12.30387125,.00056499,51.9599,25.1342,68.1635,324.8585,0,U,32265,999,86163,-.23320689E-4,-.97E-6,0
GLOBALSTAR M079,2010-054A,2026-06-27T23:22:35.619168,12.62266272,.00009386,52.0045,75.8334,47.4717,326.1835,0,U,37188,999,72391,.32422688E-4,-.98E-6,0
GLOBALSTAR M074,2010-054B,2026-06-28T15:10:10.377984,12.62261790,.00007592,52.0024,73.0933,69.9072,295.6796,0,U,37189,999,72460,.14348211E-4,-.101E-5,0
GLOBALSTAR M076,2010-054C,2026-06-28T10:58:28.102080,12.62261900,.00009644,52.0031,73.8296,63.8266,106.9806,0,U,37190,999,72429,-.6259308E-5,-.105E-5,0
GLOBALSTAR M077,2010-054D,2026-06-28T05:46:26.099040,11.67548027,.00025561,51.9929,151.2395,192.9116,180.1876,0,U,37191,999,72243,.4773374E-5,-.78E-6,0
GLOBALSTAR M075,2010-054E,2026-06-28T13:11:38.751648,12.62267420,.0000436,51.9941,115.5958,38.1896,133.2375,0,U,37192,999,72337,-.70216954E-4,-.116E-5,0
GLOBALSTAR M073,2010-054F,2026-06-28T12:22:56.887680,12.62266695,.00010786,52.0076,29.8083,69.6163,306.4846,0,U,37193,999,72536,.1035509E-3,-.85E-6,0
GLOBALSTAR M083,2011-033A,2026-06-28T14:56:01.732128,12.62263670,.00009531,51.9881,337.6975,85.1503,355.6397,0,U,37739,999,69439,.10370421E-3,-.85E-6,0
GLOBALSTAR M088,2011-033B,2026-06-28T14:40:48.478080,12.62269047,.00004424,52.0200,244.1869,144.1349,7.0871,0,U,37740,999,68993,.19455188E-3,-.69E-6,0
GLOBALSTAR M091,2011-033C,2026-06-28T13:09:27.592128,12.62264126,.00000208,51.9968,207.3276,207.4916,316.1595,0,U,37741,999,69071,.12652751E-3,-.81E-6,0
GLOBALSTAR M085,2011-033D,2026-06-28T06:21:00.431712,12.62264205,.00003734,52.0102,159.4915,0.3371,13.8119,0,U,37742,999,69119,-.16508831E-4,-.107E-5,0
GLOBALSTAR M081,2011-033E,2026-06-28T05:04:48.949824,12.62265277,.00002635,51.9932,162.0762,35.2591,338.0591,0,U,37743,999,69133,.7318804E-5,-.102E-5,0
GLOBALSTAR M089,2011-033F,2026-06-28T14:27:53.062272,12.62267406,.00005147,51.9922,115.0422,78.5780,93.4263,0,U,37744,999,69222,-.65704505E-4,-.116E-5,0
GLOBALSTAR M084,2011-080A,2026-06-28T14:15:57.162240,12.62267617,.00010947,52.0026,342.5545,104.8858,329.3691,0,U,38040,999,67020,-.6111045E-5,-.105E-5,0
GLOBALSTAR M080,2011-080B,2026-06-28T15:30:39.785184,12.62269770,.00004175,52.0082,344.1188,79.4688,0.7751,0,U,38041,999,67033,.67594671E-4,-.92E-6,0
GLOBALSTAR M082,2011-080C,2026-06-28T15:32:07.298880,12.62263726,.00004592,52.0086,299.6185,106.7867,267.8539,0,U,38042,999,67104,.37469597E-4,-.97E-6,0
GLOBALSTAR M092,2011-080D,2026-06-28T08:07:41.450016,12.62267184,.00008334,52.0097,30.9550,79.6238,91.0135,0,U,38043,999,66945,.98286613E-4,-.86E-6,0
GLOBALSTAR M090,2011-080E,2026-06-28T14:15:50.495616,12.62252960,.00005907,52.0139,293.7393,98.6997,274.2542,0,U,38044,999,67115,.23255488E-4,-.1E-5,0
GLOBALSTAR M086,2011-080F,2026-06-28T14:47:09.402720,12.62287304,.00016887,51.9909,293.5842,86.5405,287.1458,0,U,38045,999,67110,.16602398E-3,-.74E-6,0
GLOBALSTAR M097,2013-005A,2026-06-28T07:52:10.674912,12.62271251,.00001287,52.0016,209.4238,85.1952,274.8929,0,U,39072,999,61831,.16384416E-3,-.74E-6,0
GLOBALSTAR M093,2013-005B,2026-06-28T11:01:34.728672,12.62266149,.00002545,52.0074,202.3734,36.1667,323.9217,0,U,39073,999,61828,.14575524E-3,-.78E-6,0
GLOBALSTAR M094,2013-005C,2026-06-28T12:55:24.690144,12.62268482,.000069,51.9949,116.2371,30.8149,329.2758,0,U,39074,999,61990,-.1175146E-3,-.125E-5,0
GLOBALSTAR M096,2013-005D,2026-06-28T05:38:45.812544,12.62265670,.00003042,52.0045,165.9708,3.7693,356.3176,0,U,39075,999,61878,-.2472144E-4,-.108E-5,0
GLOBALSTAR M078,2013-005E,2026-06-28T12:36:05.025888,12.62260095,.00005023,51.9862,249.0845,278.8606,81.2204,0,U,39076,999,61744,.7198712E-3,.25E-6,0
GLOBALSTAR M095,2013-005F,2026-06-28T11:20:31.853760,12.62263675,.00000449,52.0069,246.8643,52.8039,307.2832,0,U,39077,999,61729,.18333598E-3,-.71E-6,0
GLOBALSTAR M087,2022-064A,2026-06-28T07:51:28.147104,12.62269283,.0000899,52.0010,28.5369,60.5460,299.5497,0,U,52888,999,19254,.76002465E-4,-.9E-6,0
